{"type": "FeatureCollection", "features": [ {"type": "Feature", "properties": {"norad_id": 54031, "name": "COSMOS 2559 (707K)", "group": "gnss", "lat": 57.60337521803563, "lon": 9.951918513605062, "alt_km": 19139.325564453648, "timestamp": "2025-12-20T16:47:36.530351+00:00", "meta": {"OBJECT_NAME": "COSMOS 2559 (707K)", "OBJECT_ID": "2022-130A", "EPOCH": "2025-12-20T03:21:15.154272", "MEAN_MOTION": 2.13101371, "ECCENTRICITY": 0.0011586, "INCLINATION": 64.3781, "RA_OF_ASC_NODE": 320.8808, "ARG_OF_PERICENTER": 191.9229, "MEAN_ANOMALY": 168.0425, "EPHEMERIS_TYPE": 0, "CLASSIFICATION_TYPE": "U", "NORAD_CAT_ID": 54031, "ELEMENT_SET_NO": 999, "REV_AT_EPOCH": 2487, "BSTAR": 0, "MEAN_MOTION_DOT": -5.6e-07, "MEAN_MOTION_DDOT": 0}, "tle": {"line1": "1 54031U 22130A   25354.13975873 -.00000056  00000+0  00000+0 0  9993", "line2": "2 54031  64.3781 320.8808 0011586 191.9229 168.0425  2.13101371 24873"}}, "geometry": {"type": "Point", "coordinates": [9.951918513605062, 57.60337521803563]}}, {"type": "Feature", "properties": {"norad_id": 54377, "name": "COSMOS 2564 (761)", "group": "gnss", "lat": -8.244775615464803, "lon": 22.564371168240555, "alt_km": 19110.38348549282, "timestamp": "2025-12-20T16:47:36.530362+00:00", "meta": {"OBJECT_NAME": "COSMOS 2564 (761)", "OBJECT_ID": "2022-161A", "EPOCH": "2025-12-20T10:52:36.388416", "MEAN_MOTION": 2.13102063, "ECCENTRICITY": 0.0008553, "INCLINATION": 64.7386, "RA_OF_ASC_NODE": 198.6426, "ARG_OF_PERICENTER": 203.8739, "MEAN_ANOMALY": 156.1626, "EPHEMERIS_TYPE": 0, "CLASSIFICATION_TYPE": "U", "NORAD_CAT_ID": 54377, "ELEMENT_SET_NO": 999, "REV_AT_EPOCH": 2382, "BSTAR": 0, "MEAN_MOTION_DOT": 1.01e-06, "MEAN_MOTION_DDOT": 0}, "tle": {"line1": "1 54377U 22161A   25354.45319894  .00000101  00000+0  00000+0 0  9990", "line2": "2 54377  64.7386 198.6426 0008553 203.8739 156.1626  2.13102063 23821"}}, "geometry": {"type": "Point", "coordinates": [22.564371168240555, -8.244775615464803]}}, {"type": "Feature", "properties": {"norad_id": 55268, "name": "GPS BIII-6  (PRN 28)", "group": "gnss", "lat": 7.730088599374826, "lon": -29.91550559709641, "alt_km": 20192.195535779163, "timestamp": "2025-12-20T16:47:36.530373+00:00", "meta": {"OBJECT_NAME": "GPS BIII-6  (PRN 28)", "OBJECT_ID": "2023-009A", "EPOCH": "2025-12-17T11:51:56.668896", "MEAN_MOTION": 2.00555417, "ECCENTRICITY": 0.00037978, "INCLINATION": 55.1064, "RA_OF_ASC_NODE": 155.6587, "ARG_OF_PERICENTER": 358.2196, "MEAN_ANOMALY": 17.9493, "EPHEMERIS_TYPE": 0, "CLASSIFICATION_TYPE": "U", "NORAD_CAT_ID": 55268, "ELEMENT_SET_NO": 999, "REV_AT_EPOCH": 2160, "BSTAR": 0, "MEAN_MOTION_DOT": 7.7e-07, "MEAN_MOTION_DDOT": 0}, "tle": {"line1": "1 55268U 23009A   25351.49440589  .00000077  00000+0  00000+0 0  9991", "line2": "2 55268  55.1064 155.6587 0003797 358.2196  17.9493  2.00555417 21607"}}, "geometry": {"type": "Point", "coordinates": [-29.91550559709641, 7.730088599374826]}}, {"type": "Feature", "properties": {"norad_id": 56564, "name": "BEIDOU-3 G4 (C62)", "group": "gnss", "lat": -0.2428005742233475, "lon": 141.46572705484408, "alt_km": 35776.128346415426, "timestamp": "2025-12-20T16:47:36.530387+00:00", "meta": {"OBJECT_NAME": "BEIDOU-3 G4 (C62)", "OBJECT_ID": "2023-066A", "EPOCH": "2025-12-20T13:35:05.692704", "MEAN_MOTION": 1.00271511, "ECCENTRICITY": 0.0002708, "INCLINATION": 0.7987, "RA_OF_ASC_NODE": 302.643, "ARG_OF_PERICENTER": 226.5049, "MEAN_ANOMALY": 284.0851, "EPHEMERIS_TYPE": 0, "CLASSIFICATION_TYPE": "U", "NORAD_CAT_ID": 56564, "ELEMENT_SET_NO": 999, "REV_AT_EPOCH": 960, "BSTAR": 0, "MEAN_MOTION_DOT": -8.6e-07, "MEAN_MOTION_DDOT": 0}, "tle": {"line1": "1 56564U 23066A   25354.56603811 -.00000086  00000+0  00000+0 0  9995", "line2": "2 56564   0.7987 302.6430 0002708 226.5049 284.0851  1.00271511  9603"}}, "geometry": {"type": "Point", "coordinates": [141.46572705484408, -0.2428005742233475]}}, {"type": "Feature", "properties": {"norad_id": 56759, "name": "NVS-01 (IRNSS-1J)", "group": "gnss", "lat": -1.6320922981051311, "lon": 110.90367874551067, "alt_km": 35819.82748382258, "timestamp": "2025-12-20T16:47:36.530399+00:00", "meta": {"OBJECT_NAME": "NVS-01 (IRNSS-1J)", "OBJECT_ID": "2023-076A", "EPOCH": "2025-12-20T10:25:24.739104", "MEAN_MOTION": 1.00273769, "ECCENTRICITY": 0.0008751, "INCLINATION": 2.6004, "RA_OF_ASC_NODE": 251.3285, "ARG_OF_PERICENTER": 16.2172, "MEAN_ANOMALY": 107.6261, "EPHEMERIS_TYPE": 0, "CLASSIFICATION_TYPE": "U", "NORAD_CAT_ID": 56759, "ELEMENT_SET_NO": 999, "REV_AT_EPOCH": 932, "BSTAR": 0, "MEAN_MOTION_DOT": -3.09e-06, "MEAN_MOTION_DDOT": 0}, "tle": {"line1": "1 56759U 23076A   25354.43431411 -.00000309  00000+0  00000+0 0  9991", "line2": "2 56759   2.6004 251.3285 0008751  16.2172 107.6261  1.00273769  9324"}}, "geometry": {"type": "Point", "coordinates": [110.90367874551067, -1.6320922981051311]}}, {"type": "Feature", "properties": {"norad_id": 57517, "name": "COSMOS 2569 (703K)", "group": "gnss", "lat": 1.1589250722591684, "lon": -101.87754922420288, "alt_km": 19138.76682934563, "timestamp": "2025-12-20T16:47:36.530411+00:00", "meta": {"OBJECT_NAME": "COSMOS 2569 (703K)", "OBJECT_ID": "2023-114A", "EPOCH": "2025-12-20T11:11:48.591168", "MEAN_MOTION": 2.13103983, "ECCENTRICITY": 0.0010799, "INCLINATION": 65.1981, "RA_OF_ASC_NODE": 78.6524, "ARG_OF_PERICENTER": 287.0397, "MEAN_ANOMALY": 72.8764, "EPHEMERIS_TYPE": 0, "CLASSIFICATION_TYPE": "U", "NORAD_CAT_ID": 57517, "ELEMENT_SET_NO": 999, "REV_AT_EPOCH": 1845, "BSTAR": 0, "MEAN_MOTION_DOT": -1.8e-07, "MEAN_MOTION_DDOT": 0}, "tle": {"line1": "1 57517U 23114A   25354.46653462 -.00000018  00000+0  00000+0 0  9999", "line2": "2 57517  65.1981  78.6524 0010799 287.0397  72.8764  2.13103983 18453"}}, "geometry": {"type": "Point", "coordinates": [-101.87754922420288, 1.1589250722591684]}}, {"type": "Feature", "properties": {"norad_id": 58654, "name": "BEIDOU-3 M28 (C50)", "group": "gnss", "lat": 32.79797599744878, "lon": -137.81788846683204, "alt_km": 21529.2570247324, "timestamp": "2025-12-20T16:47:36.530422+00:00", "meta": {"OBJECT_NAME": "BEIDOU-3 M28 (C50)", "OBJECT_ID": "2023-207A", "EPOCH": "2025-12-18T08:16:11.764704", "MEAN_MOTION": 1.86229821, "ECCENTRICITY": 0.00026501, "INCLINATION": 55.5892, "RA_OF_ASC_NODE": 68.4116, "ARG_OF_PERICENTER": 272.4264, "MEAN_ANOMALY": 87.5728, "EPHEMERIS_TYPE": 0, "CLASSIFICATION_TYPE": "U", "NORAD_CAT_ID": 58654, "ELEMENT_SET_NO": 999, "REV_AT_EPOCH": 1347, "BSTAR": 0, "MEAN_MOTION_DOT": -6.6e-07, "MEAN_MOTION_DDOT": 0}, "tle": {"line1": "1 58654U 23207A   25352.34458061 -.00000066  00000+0  00000+0 0  9991", "line2": "2 58654  55.5892  68.4116 0002650 272.4264  87.5728  1.86229821 13471"}}, "geometry": {"type": "Point", "coordinates": [-137.81788846683204, 32.79797599744878]}}, {"type": "Feature", "properties": {"norad_id": 58655, "name": "BEIDOU-3 M26 (C48)", "group": "gnss", "lat": -55.336840375671194, "lon": -13.398385965380129, "alt_km": 21523.106984655737, "timestamp": "2025-12-20T16:47:36.530433+00:00", "meta": {"OBJECT_NAME": "BEIDOU-3 M26 (C48)", "OBJECT_ID": "2023-207B", "EPOCH": "2025-12-19T05:11:10.015296", "MEAN_MOTION": 1.86231346, "ECCENTRICITY": 0.0004042, "INCLINATION": 55.592, "RA_OF_ASC_NODE": 68.3684, "ARG_OF_PERICENTER": 258.4158, "MEAN_ANOMALY": 101.5732, "EPHEMERIS_TYPE": 0, "CLASSIFICATION_TYPE": "U", "NORAD_CAT_ID": 58655, "ELEMENT_SET_NO": 999, "REV_AT_EPOCH": 1347, "BSTAR": 0, "MEAN_MOTION_DOT": -5.7e-07, "MEAN_MOTION_DDOT": 0}, "tle": {"line1": "1 58655U 23207B   25353.21608814 -.00000057  00000+0  00000+0 0  9992", "line2": "2 58655  55.5920  68.3684 0004042 258.4158 101.5732  1.86231346 13473"}}, "geometry": {"type": "Point", "coordinates": [-13.398385965380129, -55.336840375671194]}}, {"type": "Feature", "properties": {"norad_id": 59598, "name": "GSAT0225 (GALILEO 29)", "group": "gnss", "lat": 43.15950743512695, "lon": -114.92665501620483, "alt_km": 23213.795630957906, "timestamp": "2025-12-20T16:47:36.530444+00:00", "meta": {"OBJECT_NAME": "GSAT0225 (GALILEO 29)", "OBJECT_ID": "2024-079A", "EPOCH": "2025-12-19T07:40:30.040032", "MEAN_MOTION": 1.7047502, "ECCENTRICITY": 0.0002191, "INCLINATION": 55.0052, "RA_OF_ASC_NODE": 106.1117, "ARG_OF_PERICENTER": 185.2617, "MEAN_ANOMALY": 171.1938, "EPHEMERIS_TYPE": 0, "CLASSIFICATION_TYPE": "U", "NORAD_CAT_ID": 59598, "ELEMENT_SET_NO": 999, "REV_AT_EPOCH": 1024, "BSTAR": 0, "MEAN_MOTION_DOT": -6e-08, "MEAN_MOTION_DDOT": 0}, "tle": {"line1": "1 59598U 24079A   25353.31979213 -.00000006  00000+0  00000+0 0  9996", "line2": "2 59598  55.0052 106.1117 0002191 185.2617 171.1938  1.70475020 10248"}}, "geometry": {"type": "Point", "coordinates": [-114.92665501620483, 43.15950743512695]}}, {"type": "Feature", "properties": {"norad_id": 59600, "name": "GSAT0227 (GALILEO 30)", "group": "gnss", "lat": 8.845659899108165, "lon": 112.31643794953413, "alt_km": 23223.567683240854, "timestamp": "2025-12-20T16:47:36.530455+00:00", "meta": {"OBJECT_NAME": "GSAT0227 (GALILEO 30)", "OBJECT_ID": "2024-079C", "EPOCH": "2025-12-19T12:12:51.636672", "MEAN_MOTION": 1.70474897, "ECCENTRICITY": 0.0002924, "INCLINATION": 55.0006, "RA_OF_ASC_NODE": 106.105, "ARG_OF_PERICENTER": 116.8359, "MEAN_ANOMALY": 243.1562, "EPHEMERIS_TYPE": 0, "CLASSIFICATION_TYPE": "U", "NORAD_CAT_ID": 59600, "ELEMENT_SET_NO": 999, "REV_AT_EPOCH": 1030, "BSTAR": 0, "MEAN_MOTION_DOT": -6e-08, "MEAN_MOTION_DDOT": 0}, "tle": {"line1": "1 59600U 24079C   25353.50893098 -.00000006  00000+0  00000+0 0  9997", "line2": "2 59600  55.0006 106.1050 0002924 116.8359 243.1562  1.70474897 10305"}}, "geometry": {"type": "Point", "coordinates": [112.31643794953413, 8.845659899108165]}}]}